[{"OBJECT_NAME":"STARLINK-1771","OBJECT_ID":"2020-062BM","EPOCH":"2026-03-09T23:29:32.152704","MEAN_MOTION":15.46599985,"ECCENTRICITY":0.00025443,"INCLINATION":53.043,"RA_OF_ASC_NODE":344.5786,"ARG_OF_PERICENTER":249.4105,"MEAN_ANOMALY":110.6628,"EPHEMERIS_TYPE":0,"CLASSIFICATION_TYPE":"U","NORAD_CAT_ID":46384,"ELEMENT_SET_NO":999,"REV_AT_EPOCH":30478,"BSTAR":0.0015540489,"MEAN_MOTION_DOT":0.00079024,"MEAN_MOTION_DDOT":0},{"OBJECT_NAME":"KOSAR","OBJECT_ID":"2024-199AL","EPOCH":"2026-03-09T21:51:55.749024","MEAN_MOTION":15.47985172,"ECCENTRICITY":0.00039946,"INCLINATION":97.3118,"RA_OF_ASC_NODE":303.4764,"ARG_OF_PERICENTER":300.8911,"MEAN_ANOMALY":59.1946,"EPHEMERIS_TYPE":0,"CLASSIFICATION_TYPE":"U","NORAD_CAT_ID":61769,"ELEMENT_SET_NO":999,"REV_AT_EPOCH":11903,"BSTAR":0.00063195817,"MEAN_MOTION_DOT":0.00033017,"MEAN_MOTION_DDOT":0}]
